INMARSAT 4-F2           
1 28899U 05044A   26060.49731110 -.00000276  00000+0  00000+0 0  9993
2 28899   4.9537  43.8026 0002503 312.2837 125.7294  1.00272452 74447
METEOSAT-9 (MSG-2)      
1 28912U 05049B   26060.10419640  .00000110  00000+0  00000+0 0  9999
2 28912   9.1173  55.2137 0002005 217.8487 329.0293  1.00275370  5910
EUTELSAT 174A           
1 28924U 05052A   26060.48590284 -.00000008  00000+0  00000+0 0  9998
2 28924   3.9457  77.8648 0006279 264.1306 166.1619  1.00272810 51255
ECHOSTAR 10             
1 28935U 06003A   26060.51074788 -.00000073  00000+0  00000+0 0  9999
2 28935   0.0658 286.8670 0002443  10.4789 295.6228  1.00271005 73388
SPAINSAT                
1 28945U 06007A   26059.64365196 -.00000235  00000+0  00000+0 0  9992
2 28945   0.2822  89.3563 0004252 250.2206  20.3692  1.00272944 73133
JCSAT-5A                
1 29045U 06010A   26060.46155991 -.00000346  00000+0  00000+0 0  9993
2 29045   0.8298  85.6485 0001448 309.0692  62.7365  1.00269184 72695
ASTRA 1KR               
1 29055U 06012A   26060.30830560  .00000100  00000+0  00000+0 0  9998
2 29055   0.1954  81.7247 0003553 238.7358 328.6244  1.00270610 44614
GALAXY 16 (G-16)        
1 29236U 06023A   26060.35623248 -.00000145  00000+0  00000+0 0  9999
2 29236   0.0384 218.9861 0002331 133.6549 195.7311  1.00270023 71891
EUTELSAT 33F            
1 29270U 06032A   26060.35183495  .00000138  00000+0  00000+0 0  9993
2 29270   1.3830  83.5127 0003566 258.6142 336.7637  1.00274183 46226
JCSAT-3A                
1 29272U 06033A   26060.40121270 -.00000363  00000+0  00000+0 0  9996
2 29272   0.0450 285.3668 0002253  78.0910  68.1549  1.00272131 46659
SYRACUSE 3B             
1 29273U 06033B   26060.36850338  .00000004  00000+0  00000+0 0  9997
2 29273   2.6220  81.4336 0004107 258.0890 315.6275  1.00271805 71591
KOREASAT 5 (MUGUNGWHA 5)
1 29349U 06034A   26060.39826602 -.00000376  00000+0  00000+0 0  9995
2 29349   1.5061  84.4076 0001860 285.7195  45.4919  1.00271548 40232
DIRECTV 9S              
1 29494U 06043A   26060.42712615 -.00000131  00000+0  00000+0 0  9997
2 29494   2.1426  82.2398 0003135 261.2242 228.3051  1.00271241 50305
OPTUS D1                
1 29495U 06043B   26060.49415368 -.00000201  00000+0  00000+0 0  9998
2 29495   2.7573  81.0068 0003927 260.1731 147.9616  1.00272665 71044
BADR-4                  
1 29526U 06051A   26060.35183495  .00000127  00000+0  00000+0 0  9996
2 29526   1.7265  82.3303 0007469 258.9795 330.7172  1.00270159 50189
WILDBLUE-1              
1 29643U 06054A   26060.42513280 -.00000067  00000+0  00000+0 0  9990
2 29643   2.5249  81.8713 0001708 252.7098 226.4682  1.00272318 52714
SKYNET 5A               
1 30794U 07007B   26060.51213049 -.00000288  00000+0  00000+0 0  9993
2 30794   5.0266  75.0517 0003818 275.0206  88.7816  1.00273534 69627
ANIK F3                 
1 31102U 07009A   26060.51352659 -.00000019  00000+0  00000+0 0  9992
2 31102   0.9192  85.2500 0002786 257.0129 243.1908  1.00272616 45482
ASTRA 1L                
1 31306U 07016A   26060.43794685 -.00000202  00000+0  00000+0 0  9990
2 31306   1.0430  82.4454 0003268 268.0896 301.8998  1.00271452 43904
GALAXY 17 (G-17)        
1 31307U 07016B   26060.43033281 -.00000224  00000+0  00000+0 0  9993
2 31307   2.6990  81.2796 0003278 256.5111 251.3404  1.00270730 68728
WGS F1 (USA 195)        
1 32258U 07046A   26060.43873953 -.00000285  00000+0  00000+0 0  9997
2 32258   0.0812  87.1757 0000176 249.7173 297.7518  1.00272388 51258
SKYNET 5B               
1 32294U 07056B   26060.30943227  .00000123  00000+0  00000+0 0  9996
2 32294   4.9771  74.7947 0004010 265.2402 315.5338  1.00269479 67115
ASTRA 4A                
1 32299U 07057A   26060.36850338  .00000014  00000+0  00000+0 0  9997
2 32299   0.0590 288.3440 0002477  51.0113 317.2588  1.00272571 50566
HORIZONS-2              
1 32388U 07063B   26060.43249949 -.00000271  00000+0  00000+0 0  9997
2 32388   2.3242  81.9918 0002893 248.8593 270.2706  1.00272338 66738
THURAYA-3               
1 32404U 08001A   26060.51391444 -.00000317  00000+0  00000+0 0  9997
2 32404   5.8076  35.5965 0002474 298.7629 108.4477  1.00271522 66412
THOR 5                  
1 32487U 08006A   26060.37564590 -.00000028  00000+0  00000+0 0  9990
2 32487   0.0596 262.1156 0002674  84.8063 306.7079  1.00271837 66235
