OBJECT_NAME,OBJECT_ID,EPOCH,MEAN_MOTION,ECCENTRICITY,INCLINATION,RA_OF_ASC_NODE,ARG_OF_PERICENTER,MEAN_ANOMALY,EPHEMERIS_TYPE,CLASSIFICATION_TYPE,NORAD_CAT_ID,ELEMENT_SET_NO,REV_AT_EPOCH,BSTAR,MEAN_MOTION_DOT,MEAN_MOTION_DDOT
INMARSAT 4-F2,2005-044A,2026-03-01T11:56:07.679040,1.00272452,.0002503,4.9537,43.8026,312.2837,125.7294,0,U,28899,999,7444,0,-.276E-5,0
METEOSAT-9 (MSG-2),2005-049B,2026-03-01T02:30:02.568960,1.00275370,.0002005,9.1173,55.2137,217.8487,329.0293,0,U,28912,999,591,0,.11E-5,0
EUTELSAT 174A,2005-052A,2026-03-01T11:39:42.005376,1.00272810,.0006279,3.9457,77.8648,264.1306,166.1619,0,U,28924,999,5125,0,-.8E-7,0
ECHOSTAR 10,2006-003A,2026-03-01T12:15:28.616832,1.00271005,.0002443,0.0658,286.8670,10.4789,295.6228,0,U,28935,999,7338,0,-.73E-6,0
SPAINSAT,2006-007A,2026-02-28T15:26:51.529344,1.00272944,.0004252,0.2822,89.3563,250.2206,20.3692,0,U,28945,999,7313,0,-.235E-5,0
JCSAT-5A,2006-010A,2026-03-01T11:04:38.776224,1.00269184,.0001448,0.8298,85.6485,309.0692,62.7365,0,U,29045,999,7269,0,-.346E-5,0
ASTRA 1KR,2006-012A,2026-03-01T07:23:57.603840,1.00270610,.0003553,0.1954,81.7247,238.7358,328.6244,0,U,29055,999,4461,0,.1E-5,0
GALAXY 16 (G-16),2006-023A,2026-03-01T08:32:58.486272,1.00270023,.0002331,0.0384,218.9861,133.6549,195.7311,0,U,29236,999,7189,0,-.145E-5,0
EUTELSAT 33F,2006-032A,2026-03-01T08:26:38.539680,1.00274183,.0003566,1.3830,83.5127,258.6142,336.7637,0,U,29270,999,4622,0,.138E-5,0
JCSAT-3A,2006-033A,2026-03-01T09:37:44.777280,1.00272131,.0002253,0.0450,285.3668,78.0910,68.1549,0,U,29272,999,4665,0,-.363E-5,0
SYRACUSE 3B,2006-033B,2026-03-01T08:50:38.692032,1.00271805,.0004107,2.6220,81.4336,258.0890,315.6275,0,U,29273,999,7159,0,.4E-7,0
KOREASAT 5 (MUGUNGWHA 5),2006-034A,2026-03-01T09:33:30.184128,1.00271548,.000186,1.5061,84.4076,285.7195,45.4919,0,U,29349,999,4023,0,-.376E-5,0
DIRECTV 9S,2006-043A,2026-03-01T10:15:03.699360,1.00271241,.0003135,2.1426,82.2398,261.2242,228.3051,0,U,29494,999,5030,0,-.131E-5,0
OPTUS D1,2006-043B,2026-03-01T11:51:34.877952,1.00272665,.0003927,2.7573,81.0068,260.1731,147.9616,0,U,29495,999,7104,0,-.201E-5,0
BADR-4,2006-051A,2026-03-01T08:26:38.539680,1.00270159,.0007469,1.7265,82.3303,258.9795,330.7172,0,U,29526,999,5018,0,.127E-5,0
WILDBLUE-1,2006-054A,2026-03-01T10:12:11.473920,1.00272318,.0001708,2.5249,81.8713,252.7098,226.4682,0,U,29643,999,5271,0,-.67E-6,0
SKYNET 5A,2007-007B,2026-03-01T12:17:28.074336,1.00273534,.0003818,5.0266,75.0517,275.0206,88.7816,0,U,30794,999,6962,0,-.288E-5,0
ANIK F3,2007-009A,2026-03-01T12:19:28.697376,1.00272616,.0002786,0.9192,85.2500,257.0129,243.1908,0,U,31102,999,4548,0,-.19E-6,0
ASTRA 1L,2007-016A,2026-03-01T10:30:38.607840,1.00271452,.0003268,1.0430,82.4454,268.0896,301.8998,0,U,31306,999,4390,0,-.202E-5,0
GALAXY 17 (G-17),2007-016B,2026-03-01T10:19:40.754784,1.00270730,.0003278,2.6990,81.2796,256.5111,251.3404,0,U,31307,999,6872,0,-.224E-5,0
WGS F1 (USA 195),2007-046A,2026-03-01T10:31:47.095392,1.00272388,.0000176,0.0812,87.1757,249.7173,297.7518,0,U,32258,999,5125,0,-.285E-5,0
SKYNET 5B,2007-056B,2026-03-01T07:25:34.948128,1.00269479,.000401,4.9771,74.7947,265.2402,315.5338,0,U,32294,999,6711,0,.123E-5,0
ASTRA 4A,2007-057A,2026-03-01T08:50:38.692032,1.00272571,.0002477,0.0590,288.3440,51.0113,317.2588,0,U,32299,999,5056,0,.14E-6,0
HORIZONS-2,2007-063B,2026-03-01T10:22:47.955936,1.00272338,.0002893,2.3242,81.9918,248.8593,270.2706,0,U,32388,999,6673,0,-.271E-5,0
THURAYA-3,2008-001A,2026-03-01T12:20:02.207616,1.00271522,.0002474,5.8076,35.5965,298.7629,108.4477,0,U,32404,999,6641,0,-.317E-5,0
THOR 5,2008-006A,2026-03-01T09:00:55.805760,1.00271837,.0002674,0.0596,262.1156,84.8063,306.7079,0,U,32487,999,6623,0,-.28E-6,0
